{
  "norad_id": 62061,
  "name": "STARLINK-11429 [DTC]",
  "history": [
    {
      "epoch": "2026-03-28T22:12:10.721376",
      "apogee_km": 360.8634884402654,
      "perigee_km": 358.78415373087864,
      "latitude_deg": 22.80874963538133,
      "longitude_deg": 114.91191264009103,
      "semi_major_axis_km": 6737.960821085572,
      "eccentricity": 0.0001543,
      "inclination_deg": 53.1578,
      "raan_deg": 336.5074,
      "arg_perigee_deg": 44.6012,
      "mean_anomaly_deg": 315.513,
      "mean_motion_rev_day": 15.69676079
    }
  ]
}